Id,Nombre,Razon_social,Clase_actividad,Estrato,Tipo_vialidad,Calle,Num_Exterior,Num_Interior,Colonia,CP,Ubicacion,Telefono,Correo_e,Sitio_internet,Tipo,Longitud,Latitud,CentroComercial,TipoCentroComercial,NumLocal,tipo_corredor_industrial,nom_corredor_industrial,numero_local
8530015,WMILLENIUM,,"Comercio al por menor de llantas y cámaras para automóviles, camionetas y camiones",0 a 5 personas,CALLE,REPUBLICA DE URUGUAY,94,110,CENTRO (ÁREA 6),06060,"CUAUHTÉMOC, Cuauhtémoc, CIUDAD DE MÉXICO",,MUNDONUEVO70@HOTMAIL.COM,,Fijo,-99.13386570,19.43013352,EDIFICIO CASA DON JUAN MANUEL,EDIFICIO COMERCIAL Y DE SERVICIOS,110,,,
8337383,REFACCIONES DE RELOJ,,"Comercio al por menor de partes y refacciones usadas para automóviles, camionetas y camiones",0 a 5 personas,CALLE,DE LA PALMA,9,,CENTR0,06010,"CUAUHTÉMOC, Cuauhtémoc, CIUDAD DE MÉXICO",,,,Fijo,-99.13508095,19.43451976,SIN NOMBRE,EDIFICIO COMERCIAL Y DE SERVICIOS,DESPACHO 314,,,
998708,TALLER UNICORNIO,,Reparación del sistema eléctrico de automóviles y camiones,0 a 5 personas,AVENIDA,5 DE MAYO,40,112,CENTR0,06010,"CUAUHTÉMOC, Cuauhtémoc, CIUDAD DE MÉXICO",,,,Fijo,-99.13643142,19.43428369,EDIFICIO 5 DE MAYO,EDIFICIO COMERCIAL Y DE SERVICIOS,112,,,
7757244,SERVICIO DE INGENERIA Y REPARACION,,Reparación del sistema eléctrico de automóviles y camiones,6 a 10 personas,CALLE,MESONES,42,,CENTRO (ÁREA 8),06080,"CUAUHTÉMOC, Cuauhtémoc, CIUDAD DE MÉXICO",,,,Fijo,-99.13755834,19.42872683,,,,,,
1060485,VENTA DE REFACCIONES DE AUDIO Y VIDEO,,"Comercio al por menor de partes y refacciones nuevas para automóviles, camionetas y camiones",0 a 5 personas,CALLE,REPUBLICA DEL SALVADOR,39,306,CENTRO (ÁREA 8),06080,"CUAUHTÉMOC, Cuauhtémoc, CIUDAD DE MÉXICO",5557099767,CARLOS.RODRIGUEZ.BARRERA@GMAIL.COM,,Fijo,-99.13884934,19.42989749,,,,,,
1060486,BODEGA DE REFACCIONES DE AUDIO Y VIDEO,,"Comercio al por menor de partes y refacciones nuevas para automóviles, camionetas y camiones",0 a 5 personas,CALLE,REPUBLICA DEL SALVADOR,39,306,CENTR0,06010,"CUAUHTÉMOC, Cuauhtémoc, CIUDAD DE MÉXICO",,,,Fijo,-99.13884934,19.42989749,,,,,,
7756661,SERVICIO DIGITAL TALLER DE ELECTRÓNICA,,Otros servicios de reparación y mantenimiento de automóviles y camiones,0 a 5 personas,CALLE,ALDACO,8,,CENTRO,06070,"CUAUHTÉMOC, Cuauhtémoc, CIUDAD DE MÉXICO",,,,Fijo,-99.13990741,19.43000568,,,,,,
891959,EXTRAVAGANCE,KASSTHELM SA DE CV,"Comercio al por menor de partes y refacciones nuevas para automóviles, camionetas y camiones",0 a 5 personas,CALLE,ALDACO,6,,CENTR0,06010,"CUAUHTÉMOC, Cuauhtémoc, CIUDAD DE MÉXICO",5557091646,VENTASEXTRAVAGANCE@HOTMAIL.COM,,Fijo,-99.13985305,19.42984629,ALDACO,CENTRO Y PLAZA COMERCIAL,6,,,
1017241,SERVICIO ZAVALA,,Otros servicios de reparación y mantenimiento de automóviles y camiones,0 a 5 personas,CALLE,ALDACO,16,,CENTRO (ÁREA 8),06080,"CUAUHTÉMOC, Cuauhtémoc, CIUDAD DE MÉXICO",5557093567,,,Fijo,-99.13986357,19.42971840,,,,,,
7756112,ESTACIONAMIENTO,,Otros servicios de reparación y mantenimiento de automóviles y camiones,11 a 30 personas,AVENIDA,JOSE MARIA PINO SUAREZ,81,0,CENTR0,06020,"CUAUHTÉMOC, Cuauhtémoc, CIUDAD DE MÉXICO",,,,Fijo,-99.13313219,19.42543274,,,,,,
9147495,SEID VENTA DE COMPONENTES PARA LA INDUSTRIA ELECTRÓNICA,,"Comercio al por menor de partes y refacciones usadas para automóviles, camionetas y camiones",0 a 5 personas,CALLE,REPUBLICA DEL SALVADOR,17,16,CENTR0,06010,"CUAUHTÉMOC, Cuauhtémoc, CIUDAD DE MÉXICO",,,WWW.SEIDAATT.NET.MX,Fijo,-99.14028720,19.43008019,SIN NOMBRE,PASAJE Y ANDADOR COMERCIAL,16,,,
9197832,REPARACIÓN DE BOCINAS,,Otros servicios de reparación y mantenimiento de automóviles y camiones,0 a 5 personas,CALLE,MESONES,16,1,CENTR0,06010,"CUAUHTÉMOC, Cuauhtémoc, CIUDAD DE MÉXICO",5540486574,,,Fijo,-99.13970428,19.42889169,MESONES LA VECINDAD,EDIFICIO COMERCIAL Y DE SERVICIOS,1,,,
891666,HIFONICS,,"Comercio al por menor de partes y refacciones nuevas para automóviles, camionetas y camiones",0 a 5 personas,CALLE,ALDACO,15,,CENTRO (AREA 1),06010,"CUAUHTÉMOC, Cuauhtémoc, CIUDAD DE MÉXICO",,,,Fijo,-99.13997164,19.42918302,EDIFICIO ALDACO 15,EDIFICIO COMERCIAL Y DE SERVICIOS,7,,,
9191914,JC AUDIO,JC AUDIO SA DE CV,"Comercio al por menor de partes y refacciones nuevas para automóviles, camionetas y camiones",0 a 5 personas,CALLE,ALDACO,15,,CENTRO (AREA 1),06010,"CUAUHTÉMOC, Cuauhtémoc, CIUDAD DE MÉXICO",5555129268,,,Fijo,-99.13997164,19.42918302,EDIFICIO ALDACO 15,EDIFICIO COMERCIAL Y DE SERVICIOS,8,,,
891673,ELECTRÓNICA MASSO,,"Comercio al por menor de partes y refacciones nuevas para automóviles, camionetas y camiones",11 a 30 personas,CALLE,ALDACO,15,,CENTRO,06010,"CUAUHTÉMOC, Cuauhtémoc, CIUDAD DE MÉXICO",5555126198,,,Fijo,-99.13997436,19.42914560,,,,,,
6728467,REMO MOTOS,REMO MOTOS SA DE CV,"Comercio al por menor de partes y refacciones nuevas para automóviles, camionetas y camiones",6 a 10 personas,AVENIDA,SAN PABLO,6,,CENTR0,06010,"CUAUHTÉMOC, Cuauhtémoc, CIUDAD DE MÉXICO",,,REMOMOTOSMEXICO.COM,Fijo,-99.12934316,19.42622664,,,,,,
1014716,SISTEMAS Y COMPONENTES DIGOGA,,"Comercio al por menor de partes y refacciones usadas para automóviles, camionetas y camiones",0 a 5 personas,CALLE,REPUBLICA DEL SALVADOR,17,15,CENTR0,06010,"CUAUHTÉMOC, Cuauhtémoc, CIUDAD DE MÉXICO",5555101110,,,Fijo,-99.14049089,19.43010995,,,,,,
889655,PUESTO DE PERIODICO MAGI,,"Comercio al por menor de partes y refacciones nuevas para automóviles, camionetas y camiones",0 a 5 personas,CALLE,JUAN JOSE BAZ,11,,CENTRO (ÁREA 9),06090,"CUAUHTÉMOC, Cuauhtémoc, CIUDAD DE MÉXICO",,,,Semifijo,-99.12766674,19.42739735,,,,,,
1016186,DIAMAT GRUOP WORLD AUDIO,DIAMAT GRUOP WORLD AUDIO SA DE CV,"Comercio al por menor de partes y refacciones nuevas para automóviles, camionetas y camiones",6 a 10 personas,CALLE,VIZCAINAS,28,,CENTRO,06010,"CUAUHTÉMOC, Cuauhtémoc, CIUDAD DE MÉXICO",,,,Fijo,-99.14002780,19.42894862,,,,,,
7825019,DIAMANT GROUP WORLD AUDIO,DIAMANT GROUP WORLD AUDIO ,"Comercio al por menor de partes y refacciones nuevas para automóviles, camionetas y camiones",11 a 30 personas,CALLE,MEAVE,21,,CENTRO,06010,"CUAUHTÉMOC, Cuauhtémoc, CIUDAD DE MÉXICO",,,,Fijo,-99.14050880,19.42946328,,,,,,
891644,DIAMAN GROUP WORLD AUDIO,DIAMAN GROUP WORLD AUDIO SA,"Comercio al por menor de partes y refacciones nuevas para automóviles, camionetas y camiones",6 a 10 personas,CALLE,MEAVE,21,,CENTRO,06010,"CUAUHTÉMOC, Cuauhtémoc, CIUDAD DE MÉXICO",,,,Fijo,-99.14053101,19.42946374,,,,,,
9190780,CORPORATIVO MAGIC CAR,,"Comercio al por menor de partes y refacciones nuevas para automóviles, camionetas y camiones",0 a 5 personas,CALLE,MEAVE,19,0,CENTRO (AREA 1),06010,"CUAUHTÉMOC, Cuauhtémoc, CIUDAD DE MÉXICO",5584143345,,,Fijo,-99.14057059,19.42946455,,,,,,
8343632,APCHOT CENTER,,"Comercio al por menor de partes y refacciones nuevas para automóviles, camionetas y camiones",0 a 5 personas,CALLE,MEAVE,15,,CENTRO (AREA 1),06010,"CUAUHTÉMOC, Cuauhtémoc, CIUDAD DE MÉXICO",,,,Fijo,-99.14065209,19.42946624,PLAZA DE ACCESORIOS TECNOLOGICO,CENTRO Y PLAZA COMERCIAL,28 Y 30,,,
9193569,ILUMINACIÓN DE AUTO,ILUMINACION DE AUTO ,"Comercio al por menor de partes y refacciones nuevas para automóviles, camionetas y camiones",0 a 5 personas,CALLE,MEAVE,15,,CENTRO,06010,"CUAUHTÉMOC, Cuauhtémoc, CIUDAD DE MÉXICO",,,,Fijo,-99.14065209,19.42946624,PLAZA DE ACCESORIOS TECNOLOGICO,CENTRO Y PLAZA COMERCIAL,23 24,,,
9124026,SERVICIO ESPECIALIZADO EN MICRO ELECTRÓNICA,,Otros servicios de reparación y mantenimiento de automóviles y camiones,0 a 5 personas,CALLE,MEAVE,15,,CENTRO,06010,"CUAUHTÉMOC, Cuauhtémoc, CIUDAD DE MÉXICO",,,,Fijo,-99.14065209,19.42946624,PLAZA DE ACCESORIOS TECNOLOGICO,CENTRO Y PLAZA COMERCIAL,37,,,
1017761,REPARACIÓN DE BOCINAS CARLOS Y DANIEL,,Otros servicios de reparación y mantenimiento de automóviles y camiones,0 a 5 personas,CALLE,ECHEVESTE,5,0,CENTRO,06010,"CUAUHTÉMOC, Cuauhtémoc, CIUDAD DE MÉXICO",5557090109,,,Fijo,-99.13985882,19.42812887,,,,,,
1017721,ELECTRÓNICA GÉMINIS,,Otros servicios de reparación y mantenimiento de automóviles y camiones,0 a 5 personas,CALLE,ECHEVESTE,5,0,CENTRO,06010,"CUAUHTÉMOC, Cuauhtémoc, CIUDAD DE MÉXICO",5516878644,,,Fijo,-99.13995675,19.42813906,,,,,,
891681,REPARACIÓN DE BOCINAS Y AUTOESTÉREOS,,Otros servicios de reparación y mantenimiento de automóviles y camiones,0 a 5 personas,CALLE,VIZCAINAS,14,,CENTRO,06010,"CUAUHTÉMOC, Cuauhtémoc, CIUDAD DE MÉXICO",,,,Fijo,-99.14079355,19.42901254,VIZCAINAS,EDIFICIO COMERCIAL Y DE SERVICIOS,4,,,
8529705,CAR SISTEM,,"Comercio al por menor de partes y refacciones nuevas para automóviles, camionetas y camiones",0 a 5 personas,CALLE,MEAVE,0,0,CENTRO,06010,"CUAUHTÉMOC, Cuauhtémoc, CIUDAD DE MÉXICO",,,,Fijo,-99.14112025,19.42947591,,,,,,
7757487,LA GÜERA PONCE,,"Comercio al por menor de partes y refacciones nuevas para automóviles, camionetas y camiones",0 a 5 personas,CALLE,MEAVE,,,CENTRO,06010,"CUAUHTÉMOC, Cuauhtémoc, CIUDAD DE MÉXICO",,,,Semifijo,-99.14121458,19.42947785,,,,,,
9006714,MAGIC CAR SISTEM,,"Comercio al por menor de partes y refacciones nuevas para automóviles, camionetas y camiones",0 a 5 personas,CALLE,MEAVE,0,0,CENTRO,06010,"CUAUHTÉMOC, Cuauhtémoc, CIUDAD DE MÉXICO",,,,Fijo,-99.14123800,19.42947834,,,,,,
9084511,ESTACIONAMIENTO PUBLICO,ADMINISTRACIÓN Y SERVICIOS DE ESTACIONEMIENTO ,Otros servicios de reparación y mantenimiento de automóviles y camiones,0 a 5 personas,CALLE,NEZAHUALCOYOTL,110,,CENTR0,06010,"CUAUHTÉMOC, Cuauhtémoc, CIUDAD DE MÉXICO",,,,Fijo,-99.13726854,19.42532186,,,,,,
992814,CAR MASTER SA DE CV,CAR MASTER SA DE CV,"Comercio al por menor de partes y refacciones nuevas para automóviles, camionetas y camiones",0 a 5 personas,CALLE,VICTORIA,12,,CENTRO,06050,"CUAUHTÉMOC, Cuauhtémoc, CIUDAD DE MÉXICO",,,,Fijo,-99.14188687,19.43121015,,,,,,
8616406,STATUS,,"Comercio al por mayor de partes y refacciones nuevas para automóviles, camionetas y camiones",0 a 5 personas,CALLE,VIZCAINAS,10,3,CENTRO,06010,"CUAUHTÉMOC, Cuauhtémoc, CIUDAD DE MÉXICO",,,,Fijo,-99.14116677,19.42904369,,,,,,
9182077,TALLER DE HERRERIA,,Hojalatería y pintura de automóviles y camiones,0 a 5 personas,CALLE,5 DE FEBRERO,106,,CENTR0,06010,"CUAUHTÉMOC, Cuauhtémoc, CIUDAD DE MÉXICO",,,,Fijo,-99.13544640,19.42446321,,,,,,
1015960,ELECTRÓNICA REYES,,"Comercio al por menor de partes y refacciones usadas para automóviles, camionetas y camiones",0 a 5 personas,EJE VIAL,CENTRAL (LAZARO CARDENAS),8082,,CENTRO,06010,"CUAUHTÉMOC, Cuauhtémoc, CIUDAD DE MÉXICO",,,,Fijo,-99.14142532,19.42943351,PLAZA MEAVE,CENTRO Y PLAZA COMERCIAL,E63,,,
9078349,VENTA DE CAJONES BOCINAS Y SERVICIO DE CABLEADO,,"Comercio al por menor de partes y refacciones nuevas para automóviles, camionetas y camiones",0 a 5 personas,EJE VIAL,CENTRAL (LAZARO CARDENAS),8082,,CENTRO,06010,"CUAUHTÉMOC, Cuauhtémoc, CIUDAD DE MÉXICO",,,,Fijo,-99.14142532,19.42943351,PLAZA MEAVE,CENTRO Y PLAZA COMERCIAL,A051,,,
1016098,CAR AUDIO,,"Comercio al por menor de partes y refacciones nuevas para automóviles, camionetas y camiones",0 a 5 personas,EJE VIAL,CENTRAL (LAZARO CARDENAS),8082,82,CENTRO (AREA 1),06010,"CUAUHTÉMOC, Cuauhtémoc, CIUDAD DE MÉXICO",5562937053,,,Fijo,-99.14142532,19.42943351,PLAZA MEAVE,CENTRO Y PLAZA COMERCIAL,B-06 B-07,,,
1015999,MAXIMUS BASS,,"Comercio al por menor de partes y refacciones nuevas para automóviles, camionetas y camiones",0 a 5 personas,EJE VIAL,CENTRAL (LAZARO CARDENAS),8082,,CENTRO,06010,"CUAUHTÉMOC, Cuauhtémoc, CIUDAD DE MÉXICO",,,,Fijo,-99.14142532,19.42943351,PLAZA MEAVE,CENTRO Y PLAZA COMERCIAL,C23,,,
1015917,VENTA DE AUDIO PARA AUTOS,,"Comercio al por menor de partes y refacciones nuevas para automóviles, camionetas y camiones",0 a 5 personas,EJE VIAL,CENTRAL (LAZARO CARDENAS),8082,0,CENTRO (AREA 1),06010,"CUAUHTÉMOC, Cuauhtémoc, CIUDAD DE MÉXICO",5555122745,,,Fijo,-99.14142532,19.42943351,PLAZA MEAVE,CENTRO Y PLAZA COMERCIAL,F1 2 3,,,
9096337,MAGIC CAR,MAGIC CAR ,"Comercio al por menor de partes y refacciones nuevas para automóviles, camionetas y camiones",0 a 5 personas,EJE VIAL,CENTRAL (LAZARO CARDENAS),8082,0,CENTRO (AREA 1),06010,"CUAUHTÉMOC, Cuauhtémoc, CIUDAD DE MÉXICO",,,,Fijo,-99.14142532,19.42943351,PLAZA MEAVE,CENTRO Y PLAZA COMERCIAL,A-29,,,
1016118,GRIMAR,,"Comercio al por menor de partes y refacciones nuevas para automóviles, camionetas y camiones",0 a 5 personas,EJE VIAL,CENTRAL (LAZARO CARDENAS),8082,,CENTRO (AREA 1),06010,"CUAUHTÉMOC, Cuauhtémoc, CIUDAD DE MÉXICO",5555126841,,,Fijo,-99.14142532,19.42943351,PLAZA MEAVE,CENTRO Y PLAZA COMERCIAL,8082,,,
1016009,GRISMAR,,"Comercio al por menor de partes y refacciones nuevas para automóviles, camionetas y camiones",0 a 5 personas,EJE VIAL,CENTRAL (LAZARO CARDENAS),8082,,CENTRO (AREA 1),06010,"CUAUHTÉMOC, Cuauhtémoc, CIUDAD DE MÉXICO",5549816410,,,Fijo,-99.14142532,19.42943351,PLAZA MEAVE,CENTRO Y PLAZA COMERCIAL,D20,,,
1016110,VENTA DE ELECTRÓNICA,,"Comercio al por menor de partes y refacciones nuevas para automóviles, camionetas y camiones",0 a 5 personas,EJE VIAL,CENTRAL (LAZARO CARDENAS),8082,,CENTRO (AREA 1),06010,"CUAUHTÉMOC, Cuauhtémoc, CIUDAD DE MÉXICO",,,,Fijo,-99.14142532,19.42943351,PLAZA MEAVE,CENTRO Y PLAZA COMERCIAL,SN,,,
9133503,KITCARMEAVE,,"Comercio al por menor de partes y refacciones nuevas para automóviles, camionetas y camiones",0 a 5 personas,EJE VIAL,CENTRAL (LAZARO CARDENAS),8082,,CENTRO (AREA 1),06010,"CUAUHTÉMOC, Cuauhtémoc, CIUDAD DE MÉXICO",,,,Fijo,-99.14142532,19.42943351,PLAZA MEAVE,CENTRO Y PLAZA COMERCIAL,A 53 54,,,
1016159,ELECTRÓNICA LEO,,"Comercio al por menor de partes y refacciones nuevas para automóviles, camionetas y camiones",0 a 5 personas,EJE VIAL,CENTRAL (LAZARO CARDENAS),8082,,CENTRO,06010,"CUAUHTÉMOC, Cuauhtémoc, CIUDAD DE MÉXICO",,,,Fijo,-99.14142532,19.42943351,PLAZA MEAVE,CENTRO Y PLAZA COMERCIAL,E-032,,,
1016042,ELECTRÓNICA MARIALEX,,"Comercio al por menor de partes y refacciones nuevas para automóviles, camionetas y camiones",0 a 5 personas,EJE VIAL,CENTRAL (LAZARO CARDENAS),8082,0,CENTRO,06010,"CUAUHTÉMOC, Cuauhtémoc, CIUDAD DE MÉXICO",5555122889,,,Fijo,-99.14142532,19.42943351,PLAZA MEAVE,CENTRO Y PLAZA COMERCIAL,C43,,,
8343635,MAGIC CAR SISTEM,MAGIC CAR SISTEM ,"Comercio al por menor de partes y refacciones nuevas para automóviles, camionetas y camiones",0 a 5 personas,EJE VIAL,CENTRAL (LAZARO CARDENAS),8082,0,CENTRO (AREA 1),06010,"CUAUHTÉMOC, Cuauhtémoc, CIUDAD DE MÉXICO",,,,Fijo,-99.14142532,19.42943351,PLAZA MEAVE,CENTRO Y PLAZA COMERCIAL,LOCAL D19 20 21,,,
891686,VENTA DE BOCINAS Y ESTÉREOS,,"Comercio al por menor de partes y refacciones nuevas para automóviles, camionetas y camiones",0 a 5 personas,EJE VIAL,CENTRAL (LAZARO CARDENAS),8082,,CENTRO,06010,"CUAUHTÉMOC, Cuauhtémoc, CIUDAD DE MÉXICO",,,,Fijo,-99.14142532,19.42943351,PLAZA MEAVE,CENTRO Y PLAZA COMERCIAL,SN,,,
1016082,VENTA DE AUDIO,,"Comercio al por menor de partes y refacciones nuevas para automóviles, camionetas y camiones",0 a 5 personas,EJE VIAL,CENTRAL (LAZARO CARDENAS),8082,82,CENTRO,06010,"CUAUHTÉMOC, Cuauhtémoc, CIUDAD DE MÉXICO",,,,Fijo,-99.14142532,19.42943351,PLAZA MEAVE,CENTRO Y PLAZA COMERCIAL,82,,,
9099057,GRISMAR,,"Comercio al por menor de partes y refacciones nuevas para automóviles, camionetas y camiones",0 a 5 personas,EJE VIAL,CENTRAL (LAZARO CARDENAS),8082,,CENTRO (AREA 1),06010,"CUAUHTÉMOC, Cuauhtémoc, CIUDAD DE MÉXICO",,,,Fijo,-99.14142532,19.42943351,PLAZA MEAVE,CENTRO Y PLAZA COMERCIAL,A18 A19 A48,,,
7757475,HERMANOS RODRIGUEZ,,"Comercio al por menor de partes y refacciones nuevas para automóviles, camionetas y camiones",0 a 5 personas,EJE VIAL,CENTRAL (LAZARO CARDENAS),8082,0,CENTRO,06010,"CUAUHTÉMOC, Cuauhtémoc, CIUDAD DE MÉXICO",,,,Fijo,-99.14142532,19.42943351,PLAZA MEAVE,CENTRO Y PLAZA COMERCIAL,E031,,,
1015920,REPARACIÓN Y VENTA DE MÓDULOS PARA AUTO,,"Comercio al por menor de partes y refacciones nuevas para automóviles, camionetas y camiones",0 a 5 personas,EJE VIAL,CENTRAL (LAZARO CARDENAS),8082,,CENTRO (AREA 1),06010,"CUAUHTÉMOC, Cuauhtémoc, CIUDAD DE MÉXICO",,,,Fijo,-99.14142532,19.42943351,PLAZA MEAVE,CENTRO Y PLAZA COMERCIAL,F4,,,
1016096,SIN NOMBRE AUTO ESTÉREO,,"Comercio al por menor de partes y refacciones nuevas para automóviles, camionetas y camiones",0 a 5 personas,EJE VIAL,CENTRAL (LAZARO CARDENAS),8082,82,CENTRO (AREA 1),06010,"CUAUHTÉMOC, Cuauhtémoc, CIUDAD DE MÉXICO",,,,Fijo,-99.14142532,19.42943351,PLAZA MEAVE,CENTRO Y PLAZA COMERCIAL,B 003,,,
1016080,CARS ROCK,,"Comercio al por menor de partes y refacciones nuevas para automóviles, camionetas y camiones",0 a 5 personas,EJE VIAL,CENTRAL (LAZARO CARDENAS),8082,82,CENTRO,06010,"CUAUHTÉMOC, Cuauhtémoc, CIUDAD DE MÉXICO",,,,Fijo,-99.14142532,19.42943351,PLAZA MEAVE,CENTRO Y PLAZA COMERCIAL,82,,,
891691,VENTA DE ACCESORIOS PARA AUTO,,"Comercio al por menor de partes y refacciones nuevas para automóviles, camionetas y camiones",0 a 5 personas,EJE VIAL,CENTRAL (LAZARO CARDENAS),8082,,CENTRO (AREA 1),06010,"CUAUHTÉMOC, Cuauhtémoc, CIUDAD DE MÉXICO",,,,Fijo,-99.14142532,19.42943351,PLAZA MEAVE,CENTRO Y PLAZA COMERCIAL,E29,,,
891881,VENTA DE BOCINAS,,"Comercio al por menor de partes y refacciones nuevas para automóviles, camionetas y camiones",0 a 5 personas,EJE VIAL,CENTRAL (LAZARO CARDENAS),8082,,CENTRO (AREA 1),06010,"CUAUHTÉMOC, Cuauhtémoc, CIUDAD DE MÉXICO",,,,Fijo,-99.14142532,19.42943351,PLAZA MEAVE,CENTRO Y PLAZA COMERCIAL,A 020,,,
1015991,MARY S ACCESORIOS,,"Comercio al por menor de partes y refacciones nuevas para automóviles, camionetas y camiones",0 a 5 personas,EJE VIAL,CENTRAL (LAZARO CARDENAS),8082,0,CENTRO,06010,"CUAUHTÉMOC, Cuauhtémoc, CIUDAD DE MÉXICO",,,,Fijo,-99.14142532,19.42943351,PLAZA MEAVE,CENTRO Y PLAZA COMERCIAL,C-011 Y C-012,,,
1016081,CAR AUDIO MEXICO,,"Comercio al por menor de partes y refacciones nuevas para automóviles, camionetas y camiones",0 a 5 personas,EJE VIAL,CENTRAL (LAZARO CARDENAS),8082,82,CENTRO,06010,"CUAUHTÉMOC, Cuauhtémoc, CIUDAD DE MÉXICO",,,,Fijo,-99.14142532,19.42943351,PLAZA MEAVE,CENTRO Y PLAZA COMERCIAL,82,,,
8385715,SIN NOMBRE VENTA DE BOCINAS,,"Comercio al por menor de partes y refacciones nuevas para automóviles, camionetas y camiones",0 a 5 personas,EJE VIAL,CENTRAL (LAZARO CARDENAS),8082,,CENTRO (AREA 1),06010,"CUAUHTÉMOC, Cuauhtémoc, CIUDAD DE MÉXICO",,,,Fijo,-99.14142532,19.42943351,PLAZA MEAVE,CENTRO Y PLAZA COMERCIAL,A07,,,
1016170,SOLO POTENCIA,,"Comercio al por menor de partes y refacciones nuevas para automóviles, camionetas y camiones",0 a 5 personas,EJE VIAL,CENTRAL (LAZARO CARDENAS),8082,,CENTRO (AREA 1),06010,"CUAUHTÉMOC, Cuauhtémoc, CIUDAD DE MÉXICO",,,,Fijo,-99.14142532,19.42943351,PLAZA MEAVE,CENTRO Y PLAZA COMERCIAL,8082,,,
1015997,ELECTRÓNICA ESPARZA,,"Comercio al por menor de partes y refacciones nuevas para automóviles, camionetas y camiones",0 a 5 personas,EJE VIAL,CENTRAL (LAZARO CARDENAS),8082,0,CENTRO,06010,"CUAUHTÉMOC, Cuauhtémoc, CIUDAD DE MÉXICO",,,,Fijo,-99.14142532,19.42943351,PLAZA MEAVE,CENTRO Y PLAZA COMERCIAL,C-020,,,
1015998,EL GALLO,,"Comercio al por menor de partes y refacciones nuevas para automóviles, camionetas y camiones",0 a 5 personas,EJE VIAL,CENTRAL (LAZARO CARDENAS),8082,0,CENTRO,06010,"CUAUHTÉMOC, Cuauhtémoc, CIUDAD DE MÉXICO",,,,Fijo,-99.14142532,19.42943351,PLAZA MEAVE,CENTRO Y PLAZA COMERCIAL,C24,,,
9113041,VENTA DE AUTOESTÉREOS,,"Comercio al por menor de partes y refacciones nuevas para automóviles, camionetas y camiones",0 a 5 personas,EJE VIAL,CENTRAL (LAZARO CARDENAS),8082,,CENTRO (AREA 1),06010,"CUAUHTÉMOC, Cuauhtémoc, CIUDAD DE MÉXICO",,,,Fijo,-99.14142532,19.42943351,PLAZA MEAVE,CENTRO Y PLAZA COMERCIAL,SN,,,
1015989,EQUIPOS MEDINA,,"Comercio al por menor de partes y refacciones nuevas para automóviles, camionetas y camiones",0 a 5 personas,EJE VIAL,CENTRAL (LAZARO CARDENAS),8082,,CENTRO,06010,"CUAUHTÉMOC, Cuauhtémoc, CIUDAD DE MÉXICO",,,,Fijo,-99.14142532,19.42943351,PLAZA MEAVE,CENTRO Y PLAZA COMERCIAL,C8,,,
891684,VENTA DE ACCESORIOS PARA AUTO,,"Comercio al por menor de partes y refacciones nuevas para automóviles, camionetas y camiones",0 a 5 personas,EJE VIAL,CENTRAL (LAZARO CARDENAS),8082,,CENTRO (AREA 1),06010,"CUAUHTÉMOC, Cuauhtémoc, CIUDAD DE MÉXICO",,,,Fijo,-99.14142532,19.42943351,PLAZA MEAVE,CENTRO Y PLAZA COMERCIAL,8082,,,
1016064,SIN NOMBRE ELECTRÓNICA,,"Comercio al por menor de partes y refacciones nuevas para automóviles, camionetas y camiones",0 a 5 personas,EJE VIAL,CENTRAL (LAZARO CARDENAS),8082,82,CENTRO (AREA 1),06010,"CUAUHTÉMOC, Cuauhtémoc, CIUDAD DE MÉXICO",,JFAGUIRRE05@OUTLOOK.COM,,Fijo,-99.14142532,19.42943351,PLAZA MEAVE,CENTRO Y PLAZA COMERCIAL,82,,,
1016168,GRISMAR,,"Comercio al por menor de partes y refacciones nuevas para automóviles, camionetas y camiones",0 a 5 personas,EJE VIAL,CENTRAL (LAZARO CARDENAS),8082,,CENTRO (AREA 1),06010,"CUAUHTÉMOC, Cuauhtémoc, CIUDAD DE MÉXICO",,,,Fijo,-99.14142532,19.42943351,PLAZA MEAVE,CENTRO Y PLAZA COMERCIAL,B35 Y B36,,,
1016050,ESTÉREOS Y BOCINAS EL GALLO,,"Comercio al por menor de partes y refacciones nuevas para automóviles, camionetas y camiones",0 a 5 personas,EJE VIAL,CENTRAL (LAZARO CARDENAS),8082,0,CENTRO,06010,"CUAUHTÉMOC, Cuauhtémoc, CIUDAD DE MÉXICO",,,,Fijo,-99.14142532,19.42943351,PLAZA MEAVE,CENTRO Y PLAZA COMERCIAL,C 54- C-55 C-56,,,
1015918,AUDIO ART,,"Comercio al por menor de partes y refacciones nuevas para automóviles, camionetas y camiones",0 a 5 personas,EJE VIAL,CENTRAL (LAZARO CARDENAS),8082,,CENTRO,06010,"CUAUHTÉMOC, Cuauhtémoc, CIUDAD DE MÉXICO",,,,Fijo,-99.14142532,19.42943351,PLAZA MEAVE,CENTRO Y PLAZA COMERCIAL,F1,,,
9196468,ELECTRÓNICA JORDAN,,"Comercio al por menor de partes y refacciones nuevas para automóviles, camionetas y camiones",0 a 5 personas,EJE VIAL,CENTRAL (LAZARO CARDENAS),8082,,CENTRO (AREA 1),06010,"CUAUHTÉMOC, Cuauhtémoc, CIUDAD DE MÉXICO",,,,Fijo,-99.14142532,19.42943351,PLAZA MEAVE,CENTRO Y PLAZA COMERCIAL,D 045,,,
8616408,AUTO ESTÉREO SIN NOMBRE,ELECTRO CEL KATY ,"Comercio al por menor de partes y refacciones nuevas para automóviles, camionetas y camiones",0 a 5 personas,EJE VIAL,CENTRAL (LAZARO CARDENAS),8082,,CENTRO,06010,"CUAUHTÉMOC, Cuauhtémoc, CIUDAD DE MÉXICO",,,,Fijo,-99.14142532,19.42943351,PLAZA MEAVE,CENTRO Y PLAZA COMERCIAL,C-033,,,
1015996,MARY S ACCESORIOS,,"Comercio al por menor de partes y refacciones nuevas para automóviles, camionetas y camiones",0 a 5 personas,EJE VIAL,CENTRAL (LAZARO CARDENAS),8082,,CENTRO (AREA 1),06010,"CUAUHTÉMOC, Cuauhtémoc, CIUDAD DE MÉXICO",,,,Fijo,-99.14142532,19.42943351,PLAZA MEAVE,CENTRO Y PLAZA COMERCIAL,C 018,,,
891882,GRISMAR,,"Comercio al por menor de partes y refacciones nuevas para automóviles, camionetas y camiones",0 a 5 personas,EJE VIAL,CENTRAL (LAZARO CARDENAS),8082,82,CENTRO (AREA 1),06010,"CUAUHTÉMOC, Cuauhtémoc, CIUDAD DE MÉXICO",,,,Fijo,-99.14142532,19.42943351,PLAZA MEAVE,CENTRO Y PLAZA COMERCIAL,A01819,,,
9147564,VENTA DE ELECTRÓNICA,,"Comercio al por menor de partes y refacciones nuevas para automóviles, camionetas y camiones",0 a 5 personas,EJE VIAL,CENTRAL (LAZARO CARDENAS),8082,0,CENTRO (AREA 1),06010,"CUAUHTÉMOC, Cuauhtémoc, CIUDAD DE MÉXICO",,,,Fijo,-99.14142532,19.42943351,PLAZA MEAVE,CENTRO Y PLAZA COMERCIAL,F 44,,,
1016032,GERSAN,,"Comercio al por menor de partes y refacciones nuevas para automóviles, camionetas y camiones",0 a 5 personas,EJE VIAL,CENTRAL (LAZARO CARDENAS),8082,,CENTRO,06010,"CUAUHTÉMOC, Cuauhtémoc, CIUDAD DE MÉXICO",,,,Fijo,-99.14142532,19.42943351,PLAZA MEAVE,CENTRO Y PLAZA COMERCIAL,D-056,,,
1015978,VENTA DE ACCESORIOS AUTOESTEREROS,,"Comercio al por menor de partes y refacciones nuevas para automóviles, camionetas y camiones",0 a 5 personas,EJE VIAL,CENTRAL (LAZARO CARDENAS),8082,,CENTRO,06010,"CUAUHTÉMOC, Cuauhtémoc, CIUDAD DE MÉXICO",,,,Fijo,-99.14142532,19.42943351,PLAZA MEAVE,CENTRO Y PLAZA COMERCIAL,E-057,,,
1016033,AUTO ESTÉREOS AGUIRRE,,"Comercio al por menor de partes y refacciones nuevas para automóviles, camionetas y camiones",0 a 5 personas,EJE VIAL,CENTRAL (LAZARO CARDENAS),8082,0,CENTRO,06010,"CUAUHTÉMOC, Cuauhtémoc, CIUDAD DE MÉXICO",55218515,,,Fijo,-99.14142532,19.42943351,PLAZA MEAVE,CENTRO Y PLAZA COMERCIAL,A06,,,
9083734,CAR MAGIC,,"Comercio al por menor de partes y refacciones nuevas para automóviles, camionetas y camiones",0 a 5 personas,EJE VIAL,CENTRAL (LAZARO CARDENAS),8082,82,CENTRO,06010,"CUAUHTÉMOC, Cuauhtémoc, CIUDAD DE MÉXICO",,,,Fijo,-99.14142532,19.42943351,PLAZA MEAVE,CENTRO Y PLAZA COMERCIAL,A-061,,,
7757422,MAGIC CAR,,"Comercio al por menor de partes y refacciones nuevas para automóviles, camionetas y camiones",0 a 5 personas,EJE VIAL,CENTRAL (LAZARO CARDENAS),8082,0,CENTRO,06010,"CUAUHTÉMOC, Cuauhtémoc, CIUDAD DE MÉXICO",,,,Fijo,-99.14142532,19.42943351,PLAZA MEAVE,CENTRO Y PLAZA COMERCIAL,D33,,,
1015987,MAXIMAS,,"Comercio al por menor de partes y refacciones nuevas para automóviles, camionetas y camiones",0 a 5 personas,EJE VIAL,CENTRAL (LAZARO CARDENAS),8082,,CENTRO,06010,"CUAUHTÉMOC, Cuauhtémoc, CIUDAD DE MÉXICO",,,,Fijo,-99.14142532,19.42943351,PLAZA MEAVE,CENTRO Y PLAZA COMERCIAL,C-006,,,
1016044,KEVIN SYSTEMS,,"Comercio al por menor de partes y refacciones nuevas para automóviles, camionetas y camiones",0 a 5 personas,EJE VIAL,CENTRAL (LAZARO CARDENAS),8082,,CENTRO,06010,"CUAUHTÉMOC, Cuauhtémoc, CIUDAD DE MÉXICO",5555218513,,,Fijo,-99.14142532,19.42943351,PLAZA MEAVE,CENTRO Y PLAZA COMERCIAL,035,,,
1016085,KID CAR MEAVE,,"Comercio al por menor de partes y refacciones nuevas para automóviles, camionetas y camiones",0 a 5 personas,EJE VIAL,CENTRAL (LAZARO CARDENAS),8082,82,CENTRO (AREA 1),06010,"CUAUHTÉMOC, Cuauhtémoc, CIUDAD DE MÉXICO",,,,Fijo,-99.14142532,19.42943351,PLAZA MEAVE,CENTRO Y PLAZA COMERCIAL,82,,,
1016083,AUTOESTÉREOS Y VIDEOJUEGOS,,"Comercio al por menor de partes y refacciones nuevas para automóviles, camionetas y camiones",0 a 5 personas,EJE VIAL,CENTRAL (LAZARO CARDENAS),8082,82,CENTRO (AREA 1),06010,"CUAUHTÉMOC, Cuauhtémoc, CIUDAD DE MÉXICO",,,,Fijo,-99.14142532,19.42943351,PLAZA MEAVE,CENTRO Y PLAZA COMERCIAL,42 Y 43,,,
9105185,VENTA DE AUDIO,,"Comercio al por menor de partes y refacciones nuevas para automóviles, camionetas y camiones",0 a 5 personas,EJE VIAL,CENTRAL (LAZARO CARDENAS),8082,,CENTRO,06010,"CUAUHTÉMOC, Cuauhtémoc, CIUDAD DE MÉXICO",,,,Fijo,-99.14142532,19.42943351,PLAZA MEAVE,CENTRO Y PLAZA COMERCIAL,A-054,,,
891885,VENTA DE BOCINAS,,"Comercio al por menor de partes y refacciones nuevas para automóviles, camionetas y camiones",0 a 5 personas,EJE VIAL,CENTRAL (LAZARO CARDENAS),8082,82,CENTRO,06010,"CUAUHTÉMOC, Cuauhtémoc, CIUDAD DE MÉXICO",,,,Fijo,-99.14142532,19.42943351,PLAZA MEAVE,CENTRO Y PLAZA COMERCIAL,A-053,,,
1016003,VENTA DE AUTOESTÉREOS,,"Comercio al por menor de partes y refacciones nuevas para automóviles, camionetas y camiones",0 a 5 personas,EJE VIAL,CENTRAL (LAZARO CARDENAS),8082,0,CENTRO,06010,"CUAUHTÉMOC, Cuauhtémoc, CIUDAD DE MÉXICO",,,,Fijo,-99.14142532,19.42943351,PLAZA MEAVE,CENTRO Y PLAZA COMERCIAL,C37,,,
1015956,AUTO ESTÉREO POLO,,"Comercio al por menor de partes y refacciones nuevas para automóviles, camionetas y camiones",0 a 5 personas,EJE VIAL,CENTRAL (LAZARO CARDENAS),8082,0,CENTRO,06010,"CUAUHTÉMOC, Cuauhtémoc, CIUDAD DE MÉXICO",,,,Fijo,-99.14142532,19.42943351,PLAZA MEAVE,CENTRO Y PLAZA COMERCIAL,E-059,,,
9185550,ALPHA Y OMEGA,,"Comercio al por menor de partes y refacciones nuevas para automóviles, camionetas y camiones",0 a 5 personas,EJE VIAL,CENTRAL (LAZARO CARDENAS),8082,0,CENTRO,06010,"CUAUHTÉMOC, Cuauhtémoc, CIUDAD DE MÉXICO",,,,Fijo,-99.14142532,19.42943351,PLAZA MEAVE,CENTRO Y PLAZA COMERCIAL,C-047 Y C-048,,,
7757424,LUIS REPARACIÓN DE ELECTRÓNICA AUTOMOTRIZ,AUDIO REPARACION DE ELECTRONICA AUTOMOTRIZ ,Reparación mecánica en general de automóviles y camiones,0 a 5 personas,EJE VIAL,CENTRAL (LAZARO CARDENAS),8082,0,CENTRO,06010,"CUAUHTÉMOC, Cuauhtémoc, CIUDAD DE MÉXICO",,,,Fijo,-99.14142532,19.42943351,PLAZA MEAVE,CENTRO Y PLAZA COMERCIAL,E43,,,
1015916,SERVICIO ESPECIALIZADO TÉCNICO,,Otros servicios de reparación y mantenimiento de automóviles y camiones,0 a 5 personas,EJE VIAL,CENTRAL (LAZARO CARDENAS),8082,,CENTRO,06010,"CUAUHTÉMOC, Cuauhtémoc, CIUDAD DE MÉXICO",5555214368,,,Fijo,-99.14142532,19.42943351,PLAZA MEAVE,CENTRO Y PLAZA COMERCIAL,E 026,,,
891695,ELECTRÓNICA PATY,,Otros servicios de reparación y mantenimiento de automóviles y camiones,0 a 5 personas,EJE VIAL,CENTRAL (LAZARO CARDENAS),8082,,CENTRO (AREA 1),06010,"CUAUHTÉMOC, Cuauhtémoc, CIUDAD DE MÉXICO",,,,Fijo,-99.14142532,19.42943351,PLAZA MEAVE,CENTRO Y PLAZA COMERCIAL,SN,,,
891694,REPARACIÓN DE AUTO ESTÉREOS,,Otros servicios de reparación y mantenimiento de automóviles y camiones,0 a 5 personas,EJE VIAL,CENTRAL (LAZARO CARDENAS),8082,0,CENTRO,06010,"CUAUHTÉMOC, Cuauhtémoc, CIUDAD DE MÉXICO",,,,Fijo,-99.14142532,19.42943351,PLAZA MEAVE,CENTRO Y PLAZA COMERCIAL,E012,,,
1015968,FEDE,,Otros servicios de reparación y mantenimiento de automóviles y camiones,0 a 5 personas,EJE VIAL,CENTRAL (LAZARO CARDENAS),8082,0,CENTRO,06010,"CUAUHTÉMOC, Cuauhtémoc, CIUDAD DE MÉXICO",,,,Fijo,-99.14142532,19.42943351,PLAZA MEAVE,CENTRO Y PLAZA COMERCIAL,E-37,,,
1016056,ELECTRÓNICA GABRIEL,,Otros servicios de reparación y mantenimiento de automóviles y camiones,0 a 5 personas,EJE VIAL,CENTRAL (LAZARO CARDENAS),8082,,CENTRO (AREA 1),06010,"CUAUHTÉMOC, Cuauhtémoc, CIUDAD DE MÉXICO",,,,Fijo,-99.14142532,19.42943351,PLAZA MEAVE,CENTRO Y PLAZA COMERCIAL,C-066,,,
891696,TALLER DE REPARACIÓN DE AUTOESTÉREOS,,Otros servicios de reparación y mantenimiento de automóviles y camiones,0 a 5 personas,EJE VIAL,CENTRAL (LAZARO CARDENAS),8082,,CENTRO,06010,"CUAUHTÉMOC, Cuauhtémoc, CIUDAD DE MÉXICO",,,,Fijo,-99.14142532,19.42943351,PLAZA MEAVE,CENTRO Y PLAZA COMERCIAL,E 058,,,
8616358,FEDE VENTA DE AUTO ESTÉREOS Y REPARACIÓN DE BOCINAS,,Otros servicios de reparación y mantenimiento de automóviles y camiones,0 a 5 personas,EJE VIAL,CENTRAL (LAZARO CARDENAS),8082,0,CENTRO,06010,"CUAUHTÉMOC, Cuauhtémoc, CIUDAD DE MÉXICO",,,,Fijo,-99.14142532,19.42943351,PLAZA MEAVE,CENTRO Y PLAZA COMERCIAL,E-33,,,
1015909,TALLER DE REPARACIÓN AUTO ESTEREO,,Otros servicios de reparación y mantenimiento de automóviles y camiones,0 a 5 personas,EJE VIAL,CENTRAL (LAZARO CARDENAS),8082,0,CENTRO,06010,"CUAUHTÉMOC, Cuauhtémoc, CIUDAD DE MÉXICO",,,,Fijo,-99.14142532,19.42943351,PLAZA MEAVE,CENTRO Y PLAZA COMERCIAL,E22,,,
1015947,AL CODE,,Otros servicios de reparación y mantenimiento de automóviles y camiones,0 a 5 personas,EJE VIAL,CENTRAL (LAZARO CARDENAS),8082,0,CENTRO,06010,"CUAUHTÉMOC, Cuauhtémoc, CIUDAD DE MÉXICO",,,,Fijo,-99.14142532,19.42943351,PLAZA MEAVE,CENTRO Y PLAZA COMERCIAL,E-54,,,
8385714,BULLS ELECTRONICS,BULLS ELECTRONICS ,Otros servicios de reparación y mantenimiento de automóviles y camiones,0 a 5 personas,EJE VIAL,CENTRAL (LAZARO CARDENAS),8082,0,CENTRO (AREA 1),06010,"CUAUHTÉMOC, Cuauhtémoc, CIUDAD DE MÉXICO",,,,Fijo,-99.14142532,19.42943351,PLAZA MEAVE,CENTRO Y PLAZA COMERCIAL,B 004,,,
7757426,LOST BANANAS EL CHANCLAS REPARACIÓN DE AUTO ESTÉREO,,Otros servicios de reparación y mantenimiento de automóviles y camiones,0 a 5 personas,EJE VIAL,CENTRAL (LAZARO CARDENAS),8082,0,CENTRO,06010,"CUAUHTÉMOC, Cuauhtémoc, CIUDAD DE MÉXICO",,,,Fijo,-99.14142532,19.42943351,PLAZA MEAVE,CENTRO Y PLAZA COMERCIAL,E042,,,
1015901,REPARACIÓN DE AUTO ESTÉREOS,,Otros servicios de reparación y mantenimiento de automóviles y camiones,0 a 5 personas,EJE VIAL,CENTRAL (LAZARO CARDENAS),8082,0,CENTRO,06010,"CUAUHTÉMOC, Cuauhtémoc, CIUDAD DE MÉXICO",,,,Fijo,-99.14142532,19.42943351,PLAZA MEAVE,CENTRO Y PLAZA COMERCIAL,E-51,,,
8616404,REPARACIÓN DE AUTO ESTÉREO,,Otros servicios de reparación y mantenimiento de automóviles y camiones,0 a 5 personas,EJE VIAL,CENTRAL (LAZARO CARDENAS),8082,0,CENTRO,06010,"CUAUHTÉMOC, Cuauhtémoc, CIUDAD DE MÉXICO",,,,Fijo,-99.14142532,19.42943351,PLAZA MEAVE,CENTRO Y PLAZA COMERCIAL,50,,,
1015902,REPARACIÓN DE AUTOESTÉREOS,,Otros servicios de reparación y mantenimiento de automóviles y camiones,0 a 5 personas,EJE VIAL,CENTRAL (LAZARO CARDENAS),8082,0,CENTRO,06010,"CUAUHTÉMOC, Cuauhtémoc, CIUDAD DE MÉXICO",,,,Fijo,-99.14142532,19.42943351,PLAZA MEAVE,CENTRO Y PLAZA COMERCIAL,E06,,,
7757427,REPARACIÓN DE AUTOESTEREO,,Otros servicios de reparación y mantenimiento de automóviles y camiones,0 a 5 personas,EJE VIAL,CENTRAL (LAZARO CARDENAS),8082,0,CENTRO,06010,"CUAUHTÉMOC, Cuauhtémoc, CIUDAD DE MÉXICO",,,,Fijo,-99.14142532,19.42943351,PLAZA MEAVE,CENTRO Y PLAZA COMERCIAL,E 41,,,
1016002,REPARACIÓN DE AUTOSTEREOS,,Otros servicios de reparación y mantenimiento de automóviles y camiones,0 a 5 personas,EJE VIAL,CENTRAL (LAZARO CARDENAS),8082,0,CENTRO,06010,"CUAUHTÉMOC, Cuauhtémoc, CIUDAD DE MÉXICO",,,,Fijo,-99.14142532,19.42943351,PLAZA MEAVE,CENTRO Y PLAZA COMERCIAL,E061,,,
9166794,TALLER DE REPARACIÓN DE AUTO ESTÉREO,,Otros servicios de reparación y mantenimiento de automóviles y camiones,0 a 5 personas,EJE VIAL,CENTRAL (LAZARO CARDENAS),8082,0,CENTRO (AREA 1),06010,"CUAUHTÉMOC, Cuauhtémoc, CIUDAD DE MÉXICO",,,,Fijo,-99.14142532,19.42943351,PLAZA MEAVE,CENTRO Y PLAZA COMERCIAL,E 43,,,
1016111,ELECTRÓNICA HERNÁNDEZ,,Otros servicios de reparación y mantenimiento de automóviles y camiones,0 a 5 personas,EJE VIAL,CENTRAL (LAZARO CARDENAS),8082,0,CENTRO,06010,"CUAUHTÉMOC, Cuauhtémoc, CIUDAD DE MÉXICO",,,,Fijo,-99.14142532,19.42943351,PLAZA MEAVE,CENTRO Y PLAZA COMERCIAL,E-065,,,
1015945,REPARACIÓN DE AUTOESTÉREOS,,Otros servicios de reparación y mantenimiento de automóviles y camiones,0 a 5 personas,EJE VIAL,CENTRAL (LAZARO CARDENAS),8082,0,CENTRO,06010,"CUAUHTÉMOC, Cuauhtémoc, CIUDAD DE MÉXICO",,,,Fijo,-99.14142532,19.42943351,PLAZA MEAVE,CENTRO Y PLAZA COMERCIAL,E 063,,,
1015975,TALLER DE REPARACIONES DE AUTOESTÉREOS,,Otros servicios de reparación y mantenimiento de automóviles y camiones,0 a 5 personas,EJE VIAL,CENTRAL (LAZARO CARDENAS),8082,0,CENTRO,06010,"CUAUHTÉMOC, Cuauhtémoc, CIUDAD DE MÉXICO",,,,Fijo,-99.14142532,19.42943351,PLAZA MEAVE,CENTRO Y PLAZA COMERCIAL,F-064,,,
1016054,REPARACIÓN DE AUTOESTÉREOS,,Otros servicios de reparación y mantenimiento de automóviles y camiones,0 a 5 personas,EJE VIAL,CENTRAL (LAZARO CARDENAS),8082,0,CENTRO,06010,"CUAUHTÉMOC, Cuauhtémoc, CIUDAD DE MÉXICO",,,,Fijo,-99.14142532,19.42943351,PLAZA MEAVE,CENTRO Y PLAZA COMERCIAL,C-063,,,
1015981,TALLER DE REPARACIÓN DE AUTOESTÉREOS CHUCHO,,Otros servicios de reparación y mantenimiento de automóviles y camiones,0 a 5 personas,EJE VIAL,CENTRAL (LAZARO CARDENAS),8082,0,CENTRO,06010,"CUAUHTÉMOC, Cuauhtémoc, CIUDAD DE MÉXICO",5522654494,,,Fijo,-99.14142532,19.42943351,PLAZA MEAVE,CENTRO Y PLAZA COMERCIAL,F 065,,,
1015961,MASTER CODE,,Otros servicios de reparación y mantenimiento de automóviles y camiones,0 a 5 personas,EJE VIAL,CENTRAL (LAZARO CARDENAS),8082,,CENTRO (AREA 1),06010,"CUAUHTÉMOC, Cuauhtémoc, CIUDAD DE MÉXICO",,,,Fijo,-99.14142532,19.42943351,PLAZA MEAVE,CENTRO Y PLAZA COMERCIAL,8082,,,
9070217,LOS BANARAS SERVICIO Y REPARACIÓN AUTO ESTÉREO,,Otros servicios de reparación y mantenimiento de automóviles y camiones,0 a 5 personas,EJE VIAL,CENTRAL (LAZARO CARDENAS),8082,0,CENTRO,06010,"CUAUHTÉMOC, Cuauhtémoc, CIUDAD DE MÉXICO",,,,Fijo,-99.14142532,19.42943351,PLAZA MEAVE,CENTRO Y PLAZA COMERCIAL,068,,,
9182666,REPARACIÓN DE AUTOESTEDREO,,Otros servicios de reparación y mantenimiento de automóviles y camiones,0 a 5 personas,EJE VIAL,CENTRAL (LAZARO CARDENAS),8082,,CENTRO,06010,"CUAUHTÉMOC, Cuauhtémoc, CIUDAD DE MÉXICO",,,,Fijo,-99.14142532,19.42943351,PLAZA MEAVE,CENTRO Y PLAZA COMERCIAL,B050,,,
1016122,REPARACIÓN DE AUTO ESTÉREO,,Otros servicios de reparación y mantenimiento de automóviles y camiones,0 a 5 personas,EJE VIAL,CENTRAL (LAZARO CARDENAS),8082,0,CENTRO,06010,"CUAUHTÉMOC, Cuauhtémoc, CIUDAD DE MÉXICO",,,,Fijo,-99.14142532,19.42943351,PLAZA MEAVE,CENTRO Y PLAZA COMERCIAL,E-055,,,
1015971,ELECTRÓNICA,,Otros servicios de reparación y mantenimiento de automóviles y camiones,0 a 5 personas,EJE VIAL,CENTRAL (LAZARO CARDENAS),8082,0,CENTRO,06010,"CUAUHTÉMOC, Cuauhtémoc, CIUDAD DE MÉXICO",,,,Fijo,-99.14142532,19.42943351,PLAZA MEAVE,CENTRO Y PLAZA COMERCIAL,A50 A47,,,
992727,ASPIRADORAS LUNA,,"Comercio al por menor de partes y refacciones nuevas para automóviles, camionetas y camiones",0 a 5 personas,CALLE,ARTICULO 123,20,,CENTRO (ÁREA 5),06050,"CUAUHTÉMOC, Cuauhtémoc, CIUDAD DE MÉXICO",,,,Fijo,-99.14260377,19.43211873,,,,,,
890711,VENTA DE REFACCIONES PARA MOTORES,,"Comercio al por menor de partes y refacciones nuevas para automóviles, camionetas y camiones",0 a 5 personas,CALLE,ARTICULO 123,20,16,CENTR0,06010,"CUAUHTÉMOC, Cuauhtémoc, CIUDAD DE MÉXICO",,,,Fijo,-99.14260377,19.43211873,,,,,,
637220,ACCESORIOS PARA AUTOS Y CAMIONES JONY,,"Comercio al por menor de partes y refacciones nuevas para automóviles, camionetas y camiones",0 a 5 personas,CALLE,JAIME NUNO,10,0,ZONA ESCOLAR,07230,"GUSTAVO A. MADERO, Gustavo A. Madero, CIUDAD DE MÉXICO",5522070727,,,Fijo,-99.14737078,19.54247368,,,,,,
869158,ASOCIACIÓN NACIONAL DE COMERCIANTES EN AUTOMÓVILES Y CAMIONES NUEVOS Y USADOS,ASOCIACIÓN NACIONAL DE COMERCIANTES EN AUTOMOVILES Y CAMIONES NUEVOS Y USADOS AC,"Asociaciones, organizaciones y cámaras de productores, comerciantes y prestadores de servicios",0 a 5 personas,CALLE,NUEVA YORK,3,,NAPOLES,03810,"BENITO JUÁREZ, Benito Juárez, CIUDAD DE MÉXICO",,GERENCIA@ANCA.COM.MX,WWW.ANCA.COM.MX,Fijo,-99.17930196,19.39670188,,,,,,
675184,"COMERCIO AL POR MENOR DE PARTES Y REFACCIONES NUEVAS PARA AUTOMÓVILES, CAMIONETAS Y CAMIONES",,"Comercio al por menor de partes y refacciones nuevas para automóviles, camionetas y camiones",0 a 5 personas,CALLE,ERNESTO ELORDUY,167,,VALLEJO,07870,"GUSTAVO A. MADERO, Gustavo A. Madero, CIUDAD DE MÉXICO",,,,Fijo,-99.13855026,19.46541409,,,,,,
683181,"COMERCIO AL POR MENOR DE PARTES Y REFACCIONES NUEVAS PARA AUTOMÓVILES, CAMIONETAS Y CAMIONES", ,"Comercio al por menor de partes y refacciones nuevas para automóviles, camionetas y camiones",6 a 10 personas,AVENIDA,CUITLÁHUAC,,2530,CLAVERÍA,02080,"AZCAPOTZALCO, Azcapotzalco, CIUDAD DE MÉXICO",,,,Fijo,-99.17792697,19.46140238,,,,,,
854898,"COMERCIO AL POR MENOR DE PARTES Y REFACCIONES NUEVAS PARA AUTOMÓVILES, CAMIONETAS Y CAMIONES",,"Comercio al por menor de partes y refacciones nuevas para automóviles, camionetas y camiones",0 a 5 personas,CALLE,BOULEVARD PICACHO AJUSCO,23,,MIGUEL HIDALGO 3A SECCION,14250,"TLALPAN, Tlalpan, CIUDAD DE MÉXICO",,,,Fijo,-99.20826285,19.27604351,,,,,,
914232,"COMERCIO AL POR MENOR DE PARTES Y REFACCIONES NUEVAS PARA AUTOMÓVILES, CAMIONETAS Y CAMIONES",ACCESORIOS SAGITARIO ,"Comercio al por menor de partes y refacciones nuevas para automóviles, camionetas y camiones",0 a 5 personas,AVENIDA,TETIZ,286,286,PEDREGAL DE SAN NICOLAS 3RA SECC,14100,"TLALPAN, Tlalpan, CIUDAD DE MÉXICO",,,,Fijo,-99.23275462,19.28371936,,,,,,
835193,"COMERCIO AL POR MENOR DE PARTES Y REFACCIONES NUEVAS PARA AUTOMÓVILES, CAMIONETAS Y CAMIONES SIN NOMBRE",,"Comercio al por menor de partes y refacciones nuevas para automóviles, camionetas y camiones",0 a 5 personas,CALLE,SAN ISIDRO,12,,LOMAS DE  SAN LORENZO,09780,"IZTAPALAPA, Iztapalapa, CIUDAD DE MÉXICO",,,,Fijo,-99.05936696,19.31549517,,,,,,
883486,"COMERCIO AL POR MENOR DE PARTES Y REFACCIONES USADAS PARA AUTOMÓVILES, CAMIONETAS Y CAMIONES",REFACCIONARIA MANOLO ,"Comercio al por menor de partes y refacciones usadas para automóviles, camionetas y camiones",0 a 5 personas,AVENIDA,PERALVILLO,85,,MORELOS,06200,"CUAUHTÉMOC, Cuauhtémoc, CIUDAD DE MÉXICO",5555263489,,,Fijo,-99.13199552,19.44953790,,,,,,
827302,"COMERCIO AL POR MENOR DE PARTES Y REFACCIONES USADAS PARA AUTOMÓVILES, CAMIONETAS Y CAMIONES SIN NOMBRE",,"Comercio al por menor de partes y refacciones usadas para automóviles, camionetas y camiones",0 a 5 personas,AVENIDA,CIRCUNVALACION,113,,SANTA MARIA AZTAHUACAN,09570,"IZTAPALAPA, Iztapalapa, CIUDAD DE MÉXICO",5575518269,,,Fijo,-99.03163830,19.34499570,,,,,,
660363,COMPRA VENTA DE ACCESORIOS PARA AUTOS Y CAMIONES,,"Comercio al por menor de partes y refacciones nuevas para automóviles, camionetas y camiones",0 a 5 personas,AVENIDA,CARLOS SANTANA,109,0,MOCTEZUMA 1RA SECC,15500,"VENUSTIANO CARRANZA, Venustiano Carranza, CIUDAD DE MÉXICO",,,,Fijo,-99.10647087,19.43203465,,,,,,
737844,COMPRA VENTA DE CAMIONES UNIVERSAL ZODIACO,UNIVERSAL ZODIACO SA DE CV,Comercio al por mayor de camiones,6 a 10 personas,CALZADA,AZCAPOTZALCO LA VILLA,1092,,SAN BART0LO ATEPEHUACAN,07730,"GUSTAVO A. MADERO, Gustavo A. Madero, CIUDAD DE MÉXICO",,MPEREZ@TRACTOCAMIONESZODIACO.COM,,Fijo,-99.14327586,19.49103486,,,,,,
779250,ENCIERRO DE CAMIONES,,Estacionamientos y pensiones para vehículos automotores,0 a 5 personas,CALLE,PONIENTE 106,,,DEFENSORES DE LA REPUBLICA,07780,"GUSTAVO A. MADERO, Gustavo A. Madero, CIUDAD DE MÉXICO",,,,Fijo,-99.14404359,19.47426805,,,,,,
793763,ENCIERRO DE CAMIONES DICO,MUEBLES DICO SA DE CV ,Estacionamientos y pensiones para vehículos automotores,0 a 5 personas,CALLE,FRANCISCO I. MADERO,,117,LA ASUNCIÓN,08600,"IZTACALCO, Iztacalco, CIUDAD DE MÉXICO",,,,Fijo,-99.11845246,19.39128246,,,,,,
656124,ENCIERRO DE CAMIONES ESCOLARES DE LA DELEGACIÓN GUSTAVO A MADERO,DELEGACIÓN GUSTAVO A. MADERO ,Administración pública en general,6 a 10 personas,CALLE,RIO SAN JAVIER,,,CANDELARIA TICOMAN,07310,"GUSTAVO A. MADERO, Gustavo A. Madero, CIUDAD DE MÉXICO",,,,Fijo,-99.14234858,19.51898393,,,,,,
779186,FILTROS PARA TRANSPORTE DE AUTOS Y TRACOCAMIONES,,"Comercio al por menor de partes y refacciones nuevas para automóviles, camionetas y camiones",0 a 5 personas,CALLE,PAULINO FONTES,70,,HEROE DE NACOZARI,07780,"GUSTAVO A. MADERO, Gustavo A. Madero, CIUDAD DE MÉXICO",5522993748,FILTROSFERCHA@HOTMAIL.COM,,Fijo,-99.14440140,19.47257927,,,,,,
662970,FYPSA FLETES Y PASAJES,CAMIONES EMBLEMATICOS DE OAXACA  SA DE CV,Transporte colectivo foráneo de pasajeros de ruta fija,251 y más personas,CALLE,ORIENTE 180,119,,MOCTEZUMA 2DA SECC,15530,"VENUSTIANO CARRANZA, Venustiano Carranza, CIUDAD DE MÉXICO",5535180406,MOCTEZUMA@FYPSA.COM.MX,WWW.FYPSA.COM.MX,Fijo,-99.09564270,19.42485706,,,,,,
741661,HOJALATERÍA Y PINTURA DE AUTOMÓVILES Y CAMIONES,,Hojalatería y pintura de automóviles y camiones,0 a 5 personas,CALLE,2,404,0,CUCHILLA PANTITLAN,15610,"VENUSTIANO CARRANZA, Venustiano Carranza, CIUDAD DE MÉXICO",,,,Fijo,-99.06564878,19.42238850,,,,,,
653321,HOJALATERÍA Y PINTURA DE AUTOMÓVILES Y CAMIONES,,Hojalatería y pintura de automóviles y camiones,0 a 5 personas,CALLE,MIGUEL HIDALGO,192,0,SAN BARTOLO CAHUALTONGO,02720,"AZCAPOTZALCO, Azcapotzalco, CIUDAD DE MÉXICO",5555614644,,,Fijo,-99.20352454,19.48263113,,,,,,
672902,HOJALATERÍA Y PINTURA DE AUTOMÓVILES Y CAMIONES,,Hojalatería y pintura de automóviles y camiones,0 a 5 personas,AVENIDA,ACUEDUCTO DE GUADALUPE,826,0,RESIDENCIAL ZACATENCO,07369,"GUSTAVO A. MADERO, Gustavo A. Madero, CIUDAD DE MÉXICO",,,,Fijo,-99.12284779,19.50773644,,,,,,
646440,HOJALATERÍA Y PINTURA DE AUTOMÓVILES Y CAMIONES,,Hojalatería y pintura de automóviles y camiones,0 a 5 personas,EJE VIAL,6 SUR (TRABAJADORAS SOCIALES ),376,,MAGDALENA ATLAZOLPA,09410,"IZTAPALAPA, Iztapalapa, CIUDAD DE MÉXICO",,,,Fijo,-99.10887183,19.37362171,,,,,,
662991,HOJALATERÍA Y PINTURA DE AUTOMÓVILES Y CAMIONES SIN NOMBRE,,Hojalatería y pintura de automóviles y camiones,0 a 5 personas,CALLE,NORTE 3,247,,FEDERAL,15700,"VENUSTIANO CARRANZA, Venustiano Carranza, CIUDAD DE MÉXICO",,,,Fijo,-99.09070763,19.42342350,,,,,,
718284,HOJALATERÍA Y PINTURA DE AUTOMÓVILES Y CAMIONES SIN NOMBRE,,Hojalatería y pintura de automóviles y camiones,0 a 5 personas,CALLE,ORIENTE 217,388,0,REAL DEL MORAL,09010,"IZTAPALAPA, Iztapalapa, CIUDAD DE MÉXICO",,,,Fijo,-99.08426888,19.39112974,,,,,,
905723,HOJALATERÍA Y PINTURA DE AUTOMÓVILES Y CAMIONES SIN NOMBRE,,Hojalatería y pintura de automóviles y camiones,0 a 5 personas,AVENIDA,PASEO DEL RIO,137,0,BARRIO OXTOPULCO,04318,"COYOACÁN, Coyoacán, CIUDAD DE MÉXICO",5563166016,,,Fijo,-99.18346569,19.34420098,,,,,,
853001,INSTRACTOCAMIONES AGUIRRE,,Reparación mecánica en general de automóviles y camiones,11 a 30 personas,CALLE,BOULEVARD PICACHO AJUSCO,307,,LA PRIMAVERA,14270,"TLALPAN, Tlalpan, CIUDAD DE MÉXICO",5556307663,TECAAGUIRRE@HOTMAIL.COM,,Fijo,-99.20643756,19.27351572,,,,,,
793903,LAVADO Y LUBRICADO DE AUTOMÓVILES Y CAMIONES,,Lavado y lubricado de automóviles y camiones,0 a 5 personas,EJE VIAL,2 ORIENTE (CALZADA DE LA VIGA),892,,SANTA CRUZ,08910,"IZTACALCO, Iztacalco, CIUDAD DE MÉXICO",,,,Fijo,-99.12200700,19.38838888,,,,,,
755494,OTROS SERVICIOS DE REPARACIÓN Y MANTENIMIENTO DE AUTOMÓVILES Y CAMIONES,AUDIO SHOT ,Otros servicios de reparación y mantenimiento de automóviles y camiones,0 a 5 personas,CALLE,FERNANDO IGLESIAS CALDERON,119,,JARDIN BALBUENA,15900,"VENUSTIANO CARRANZA, Venustiano Carranza, CIUDAD DE MÉXICO",26123293,,WWW.AUDIOSHOT.COM.MX,Fijo,-99.10659664,19.41220066,,,,,,
769917,PREDIO DE CAMIONES Y CARROS DE BASURA CABEZA DE JUÁREZ,GOBIERNO DE LA CIUDAD DE MEXICO ,Regulación y fomento de actividades para mejorar y preservar el medio ambiente,11 a 30 personas,AVENIDA,GUELATAO,,,CABEZA DE JUAREZ,09227,"IZTAPALAPA, Iztapalapa, CIUDAD DE MÉXICO",5575566822,,,Fijo,-99.03852088,19.38385649,,,,,,
839501,RECTIFICACIÓN DE PARTES DE MOTOR DE AUTOMÓVILES Y CAMIONES,,Rectificación de partes de motor de automóviles y camiones,0 a 5 personas,CALLE,ZACAHUITZCO,154,0,BARRIO DE SAN LORENZO,09900,"IZTAPALAPA, Iztapalapa, CIUDAD DE MÉXICO",,FANNYMART1122@HOTMAIL.COM,,Fijo,-99.07004067,19.30171068,,,,,,
919913,REFACCIONES PARA AUTOS Y CAMIONES SANTOYO,,"Comercio al por menor de partes y refacciones nuevas para automóviles, camionetas y camiones",0 a 5 personas,CALLE,FRESNO,1,,SAN JOSE DE LOS CEDRODS,05200,"CUAJIMALPA DE MORELOS, Cuajimalpa de Morelos, CIUDAD DE MÉXICO",,,,Fijo,-99.29279092,19.36941935,,,,,,
928638,REPARACIÓN DE AUTOS Y CAMIONES BONILLA,TRANSMISIONES BONILLA ,Reparación mecánica en general de automóviles y camiones,0 a 5 personas,CALLE,COMUNAL,49,,PUEBLO SAN BARTOLO AMEYALCO,01800,"ÁLVARO OBREGÓN, Álvaro Obregón, CIUDAD DE MÉXICO",5539374454,,,Fijo,-99.27823060,19.32670802,,,,,,
676199,REPARACIÓN DE CAMIONES,,Reparación mecánica en general de automóviles y camiones,0 a 5 personas,AVENIDA,INSTITUTO POLITECNICO NACIONAL,4713,,TLACAMACA,07380,"GUSTAVO A. MADERO, Gustavo A. Madero, CIUDAD DE MÉXICO",,,,Fijo,-99.13727394,19.47240342,,,,,,
880492,REPARACIÓN DEL SISTEMA ELÉCTRICO DE AUTOMÓVILES Y CAMIONES,,Reparación del sistema eléctrico de automóviles y camiones,0 a 5 personas,CALLE,MOCTEZUMA,231,,BUENAVISTA,06350,"CUAUHTÉMOC, Cuauhtémoc, CIUDAD DE MÉXICO",,,,Fijo,-99.14995782,19.44479450,,,,,,
640130,REPARACIÓN MECÁNICA EN GENERAL DE AUTOMÓVILES Y CAMIONES,,Reparación mecánica en general de automóviles y camiones,0 a 5 personas,CALLE,JARDINEROS,107,,MORELOS,15270,"VENUSTIANO CARRANZA, Venustiano Carranza, CIUDAD DE MÉXICO",5540437001,,,Fijo,-99.11667501,19.44193690,,,,,,
762519,REPARACIÓN MECÁNICA EN GENERAL DE AUTOMÓVILES Y CAMIONES,,Reparación mecánica en general de automóviles y camiones,0 a 5 personas,CALLE,DANXHO,125,0,IRRIGACION,11500,"MIGUEL HIDALGO, Miguel Hidalgo, CIUDAD DE MÉXICO",,HUMBERTONUO367@GMAIL.COM,,Fijo,-99.20536393,19.44271526,,,,,,
860005,REPARACIÓN MECÁNICA EN GENERAL DE AUTOMÓVILES Y CAMIONES,,Reparación mecánica en general de automóviles y camiones,0 a 5 personas,CALLE,REAL MADRID,43,,ARBOLEDAS DEL SUR,14376,"TLALPAN, Tlalpan, CIUDAD DE MÉXICO",5556718708,,,Fijo,-99.13593189,19.29261754,,,,,,
741112,REPARACIÓN MECÁNICA EN GENERAL DE AUTOMÓVILES Y CAMIONES,,Reparación mecánica en general de automóviles y camiones,0 a 5 personas,CALLE,TABACHIN,34,,ARENAL,02980,"AZCAPOTZALCO, Azcapotzalco, CIUDAD DE MÉXICO",,,,Fijo,-99.15444655,19.46423283,,,,,,
646512,REPARACIÓN MECÁNICA EN GENERAL DE AUTOMÓVILES Y CAMIONES,,Reparación mecánica en general de automóviles y camiones,0 a 5 personas,CALLE,VICENTE GUERRERO,45,,APATLACO,09430,"IZTAPALAPA, Iztapalapa, CIUDAD DE MÉXICO",,,,Fijo,-99.11457442,19.37803405,,,,,,
778605,REPARACIÓN MECÁNICA EN GENERAL DE AUTOMÓVILES Y CAMIONES,,Reparación mecánica en general de automóviles y camiones,0 a 5 personas,CALLE,IÑARRUTI FLORES,,,ALVARO OBREGON,09230,"IZTAPALAPA, Iztapalapa, CIUDAD DE MÉXICO",5522589681,,,Fijo,-99.03787235,19.37169455,,,,,,
792942,REPARACIÓN MECÁNICA EN GENERAL DE AUTOMÓVILES Y CAMIONES,,Reparación mecánica en general de automóviles y camiones,0 a 5 personas,AVENIDA,HERMINIO CHAVARRIA,615,,SANTA MARIA AZTAHUACÁN,09500,"IZTAPALAPA, Iztapalapa, CIUDAD DE MÉXICO",5525752730,,,Fijo,-99.03718242,19.35658436,,,,,,
815110,REPARACIÓN MECÁNICA EN GENERAL DE AUTOMÓVILES Y CAMIONES,,Reparación mecánica en general de automóviles y camiones,0 a 5 personas,CALLE,COMETA,3,,COLONIA,09640,"IZTAPALAPA, Iztapalapa, CIUDAD DE MÉXICO",,,,Fijo,-99.00872499,19.33830408,,,,,,
874079,REPARACIÓN MECÁNICA EN GENERAL DE AUTOMÓVILES Y CAMIONES,,Reparación mecánica en general de automóviles y camiones,0 a 5 personas,CALLE,LORENZO BOTURINI,93,,OBRERA,06800,"CUAUHTÉMOC, Cuauhtémoc, CIUDAD DE MÉXICO",5555788443,LLANTISERVICIO_MARVIT@YAHOO.COM,,Fijo,-99.13879419,19.41832898,,,,,,
790124,REPARACIÓN MECÁNICA EN GENERAL DE AUTOMÓVILES Y CAMIONES EL CHINO,,Reparación mecánica en general de automóviles y camiones,0 a 5 personas,CALLE,ORIENTE 87,2437,,EMILIANO ZAPATA,07889,"GUSTAVO A. MADERO, Gustavo A. Madero, CIUDAD DE MÉXICO",,,,Fijo,-99.11919079,19.46058383,,,,,,
915906,REPARACIÓN MECÁNICA EN GENERAL DE AUTOMÓVILES Y CAMIONES SIN NOMBRE,,Reparación mecánica en general de automóviles y camiones,0 a 5 personas,CALLE,CORREGIDORA,169,,MIGUEL HIDALGO,14000,"TLALPAN, Tlalpan, CIUDAD DE MÉXICO",5555287912,,,Fijo,-99.18612658,19.28545399,,,,,,
906702,REPARACIÓN MECÁNICA EN GENERAL DE AUTOMÓVILES Y CAMIONES SIN NOMBRE,,Reparación mecánica en general de automóviles y camiones,0 a 5 personas,AVENIDA,JACARANDAS,67,,CIUDAD JARDIN,04370,"COYOACÁN, Coyoacán, CIUDAD DE MÉXICO",5539406548,,,Fijo,-99.14542147,19.33479647,,,,,,
679353,REPARACIÓN MECÁNICA EN GENERAL DE AUTOMÓVILES Y CAMIONES SIN NOMBRE,,Reparación mecánica en general de automóviles y camiones,0 a 5 personas,CALLE,307,707,0,NUEVA ATZACOALCO,07420,"GUSTAVO A. MADERO, Gustavo A. Madero, CIUDAD DE MÉXICO",,,,Fijo,-99.08664826,19.50169043,,,,,,
708652,REPARACIÓN MECÁNICA EN GENERAL DE AUTOMÓVILES Y CAMIONES SIN NOMBRE,,Reparación mecánica en general de automóviles y camiones,0 a 5 personas,CALLE,SUR 8,26,,AGRICOLA ORIENTAL,08500,"IZTACALCO, Iztacalco, CIUDAD DE MÉXICO",5540585725,,,Fijo,-99.08079660,19.40174474,,,,,,
635479,TALLER DE CAMIONES,,Reparación mecánica en general de automóviles y camiones,0 a 5 personas,AVENIDA,JUVENTINO ROSAS (VENUSTIANO CARRANZA),241,,VALLE DE MADERO,07190,"GUSTAVO A. MADERO, Gustavo A. Madero, CIUDAD DE MÉXICO",5526510343,,,Fijo,-99.13679064,19.55062110,,,,,,
682121,TALLER DE EMBOBINADO,REPARACION DE SISTEMA ELECTRICO DE AUTOMOVILES Y CAMIONES ,Rectificación de partes de motor de automóviles y camiones,0 a 5 personas,CALLE,GENERAL FRANCISCO SARABIA,0,0,PROVIDENCIA,02440,"AZCAPOTZALCO, Azcapotzalco, CIUDAD DE MÉXICO",,,,Fijo,-99.20682375,19.48992053,,,,,,
803414,TAPICERIA PARA AUTOS Y CAMIONES,,Reparación de tapicería de muebles para el hogar,0 a 5 personas,EJE VIAL,8 SUR (CALZADA ERMITA IZTAPALAPA),25,,PRIMERA AMPLIACION SANTIAGO ACAHUALTEPEC,09608,"IZTAPALAPA, Iztapalapa, CIUDAD DE MÉXICO",,,,Fijo,-99.01119615,19.35379752,,,,,,
823816,TRACTO CAMIONES Y SERVICIOS DE IZTAPALAPA,TRACTO CAMIONES Y SERVICIOS DE IZTAPALAPA SA DE CV,Hojalatería y pintura de automóviles y camiones,11 a 30 personas,AVENIDA,11,170,0,EL VERGEL,09880,"IZTAPALAPA, Iztapalapa, CIUDAD DE MÉXICO",,TRACTOCAMIONES@LIVE.COM.MX,,Fijo,-99.08463285,19.31686551,,,,,,
